CCSDS_OMM_VERS = 2.0
CREATION_DATE  = 
ORIGINATOR     = 

OBJECT_NAME    = STARLINK-36673
OBJECT_ID      = 2026-022N
CENTER_NAME    = EARTH
REF_FRAME      = TEME
TIME_SYSTEM    = UTC
MEAN_ELEMENT_THEORY = SGP/SGP4

EPOCH          = 2026-02-24T01:17:16.243008
MEAN_MOTION    = 15.75242209
ECCENTRICITY   = .00012759
INCLINATION    = 97.2838
RA_OF_ASC_NODE = 88.3773
ARG_OF_PERICENTER = 109.2300
MEAN_ANOMALY   = 250.9103

EPHEMERIS_TYPE = 0
CLASSIFICATION_TYPE = U
NORAD_CAT_ID   = 67660
ELEMENT_SET_NO = 999
REV_AT_EPOCH   = 340
BSTAR          = .16437893E-2
MEAN_MOTION_DOT = .253027E-2
MEAN_MOTION_DDOT = 0

CCSDS_OMM_VERS = 2.0
CREATION_DATE  = 
ORIGINATOR     = 

OBJECT_NAME    = STARLINK-36674
OBJECT_ID      = 2026-022P
CENTER_NAME    = EARTH
REF_FRAME      = TEME
TIME_SYSTEM    = UTC
MEAN_ELEMENT_THEORY = SGP/SGP4

EPOCH          = 2026-02-24T10:24:07.424928
MEAN_MOTION    = 15.75333002
ECCENTRICITY   = .0001818
INCLINATION    = 97.2840
RA_OF_ASC_NODE = 88.7795
ARG_OF_PERICENTER = 28.1304
MEAN_ANOMALY   = 332.0059

EPHEMERIS_TYPE = 0
CLASSIFICATION_TYPE = U
NORAD_CAT_ID   = 67661
ELEMENT_SET_NO = 999
REV_AT_EPOCH   = 346
BSTAR          = .25986E-2
MEAN_MOTION_DOT = .409153E-2
MEAN_MOTION_DDOT = 0

CCSDS_OMM_VERS = 2.0
CREATION_DATE  = 
ORIGINATOR     = 

OBJECT_NAME    = STARLINK-36700
OBJECT_ID      = 2026-022Q
CENTER_NAME    = EARTH
REF_FRAME      = TEME
TIME_SYSTEM    = UTC
MEAN_ELEMENT_THEORY = SGP/SGP4

EPOCH          = 2026-02-24T07:18:06.962400
MEAN_MOTION    = 15.75238800
ECCENTRICITY   = .0003204
INCLINATION    = 97.2844
RA_OF_ASC_NODE = 88.6488
ARG_OF_PERICENTER = 347.3452
MEAN_ANOMALY   = 12.7732

EPHEMERIS_TYPE = 0
CLASSIFICATION_TYPE = U
NORAD_CAT_ID   = 67662
ELEMENT_SET_NO = 999
REV_AT_EPOCH   = 344
BSTAR          = .13198E-2
MEAN_MOTION_DOT = .201901E-2
MEAN_MOTION_DDOT = 0

CCSDS_OMM_VERS = 2.0
CREATION_DATE  = 
ORIGINATOR     = 

OBJECT_NAME    = STARLINK-36675
OBJECT_ID      = 2026-022R
CENTER_NAME    = EARTH
REF_FRAME      = TEME
TIME_SYSTEM    = UTC
MEAN_ELEMENT_THEORY = SGP/SGP4

EPOCH          = 2026-02-24T11:54:34.679808
MEAN_MOTION    = 15.75261185
ECCENTRICITY   = .0001482
INCLINATION    = 97.2840
RA_OF_ASC_NODE = 88.8471
ARG_OF_PERICENTER = 128.5196
MEAN_ANOMALY   = 231.6203

EPHEMERIS_TYPE = 0
CLASSIFICATION_TYPE = U
NORAD_CAT_ID   = 67663
ELEMENT_SET_NO = 999
REV_AT_EPOCH   = 347
BSTAR          = .13744E-2
MEAN_MOTION_DOT = .210656E-2
MEAN_MOTION_DDOT = 0

CCSDS_OMM_VERS = 2.0
CREATION_DATE  = 
ORIGINATOR     = 

OBJECT_NAME    = STARLINK-36404
OBJECT_ID      = 2026-022S
CENTER_NAME    = EARTH
REF_FRAME      = TEME
TIME_SYSTEM    = UTC
MEAN_ELEMENT_THEORY = SGP/SGP4

EPOCH          = 2026-02-24T11:50:00.206016
MEAN_MOTION    = 15.75233459
ECCENTRICITY   = .0001532
INCLINATION    = 97.2847
RA_OF_ASC_NODE = 88.8505
ARG_OF_PERICENTER = 135.7500
MEAN_ANOMALY   = 224.3887

EPHEMERIS_TYPE = 0
CLASSIFICATION_TYPE = U
NORAD_CAT_ID   = 67664
ELEMENT_SET_NO = 999
REV_AT_EPOCH   = 347
BSTAR          = .15452E-2
MEAN_MOTION_DOT = .237307E-2
MEAN_MOTION_DDOT = 0

CCSDS_OMM_VERS = 2.0
CREATION_DATE  = 
ORIGINATOR     = 

OBJECT_NAME    = STARLINK-36399
OBJECT_ID      = 2026-022T
CENTER_NAME    = EARTH
REF_FRAME      = TEME
TIME_SYSTEM    = UTC
MEAN_ELEMENT_THEORY = SGP/SGP4

EPOCH          = 2026-02-24T11:49:00.050880
MEAN_MOTION    = 15.75213838
ECCENTRICITY   = .0002109
INCLINATION    = 97.2849
RA_OF_ASC_NODE = 88.8516
ARG_OF_PERICENTER = 59.6495
MEAN_ANOMALY   = 300.4978

EPHEMERIS_TYPE = 0
CLASSIFICATION_TYPE = U
NORAD_CAT_ID   = 67665
ELEMENT_SET_NO = 999
REV_AT_EPOCH   = 347
BSTAR          = .14456E-2
MEAN_MOTION_DOT = .221415E-2
MEAN_MOTION_DDOT = 0

CCSDS_OMM_VERS = 2.0
CREATION_DATE  = 
ORIGINATOR     = 

OBJECT_NAME    = STARLINK-36365
OBJECT_ID      = 2026-022U
CENTER_NAME    = EARTH
REF_FRAME      = TEME
TIME_SYSTEM    = UTC
MEAN_ELEMENT_THEORY = SGP/SGP4

EPOCH          = 2026-02-24T11:46:57.838944
MEAN_MOTION    = 15.75227442
ECCENTRICITY   = .0001328
INCLINATION    = 97.2848
RA_OF_ASC_NODE = 88.8532
ARG_OF_PERICENTER = 78.5986
MEAN_ANOMALY   = 281.5429

EPHEMERIS_TYPE = 0
CLASSIFICATION_TYPE = U
NORAD_CAT_ID   = 67666
ELEMENT_SET_NO = 999
REV_AT_EPOCH   = 347
BSTAR          = .11149E-2
MEAN_MOTION_DOT = .169789E-2
MEAN_MOTION_DDOT = 0

CCSDS_OMM_VERS = 2.0
CREATION_DATE  = 
ORIGINATOR     = 

OBJECT_NAME    = STARLINK-36622
OBJECT_ID      = 2026-022V
CENTER_NAME    = EARTH
REF_FRAME      = TEME
TIME_SYSTEM    = UTC
MEAN_ELEMENT_THEORY = SGP/SGP4

EPOCH          = 2026-02-24T11:44:25.283328
MEAN_MOTION    = 15.75227892
ECCENTRICITY   = .0001464
INCLINATION    = 97.2849
RA_OF_ASC_NODE = 88.8562
ARG_OF_PERICENTER = 88.3134
MEAN_ANOMALY   = 271.8298

EPHEMERIS_TYPE = 0
CLASSIFICATION_TYPE = U
NORAD_CAT_ID   = 67667
ELEMENT_SET_NO = 999
REV_AT_EPOCH   = 347
BSTAR          = .11708E-2
MEAN_MOTION_DOT = .178487E-2
MEAN_MOTION_DDOT = 0

CCSDS_OMM_VERS = 2.0
CREATION_DATE  = 
ORIGINATOR     = 

OBJECT_NAME    = STARLINK-36625
OBJECT_ID      = 2026-022W
CENTER_NAME    = EARTH
REF_FRAME      = TEME
TIME_SYSTEM    = UTC
MEAN_ELEMENT_THEORY = SGP/SGP4

EPOCH          = 2026-02-24T08:39:25.826112
MEAN_MOTION    = 15.75317341
ECCENTRICITY   = .0002259
INCLINATION    = 97.2849
RA_OF_ASC_NODE = 88.7245
ARG_OF_PERICENTER = 121.8160
MEAN_ANOMALY   = 238.3326

EPHEMERIS_TYPE = 0
CLASSIFICATION_TYPE = U
NORAD_CAT_ID   = 67668
ELEMENT_SET_NO = 999
REV_AT_EPOCH   = 345
BSTAR          = .21303E-2
MEAN_MOTION_DOT = .332113E-2
MEAN_MOTION_DDOT = 0

CCSDS_OMM_VERS = 2.0
CREATION_DATE  = 
ORIGINATOR     = 

OBJECT_NAME    = STARLINK-36639
OBJECT_ID      = 2026-022X
CENTER_NAME    = EARTH
REF_FRAME      = TEME
TIME_SYSTEM    = UTC
MEAN_ELEMENT_THEORY = SGP/SGP4

EPOCH          = 2026-02-24T11:39:50.747328
MEAN_MOTION    = 15.75251345
ECCENTRICITY   = .0001742
INCLINATION    = 97.2848
RA_OF_ASC_NODE = 88.8601
ARG_OF_PERICENTER = 101.2460
MEAN_ANOMALY   = 258.9001

EPHEMERIS_TYPE = 0
CLASSIFICATION_TYPE = U
NORAD_CAT_ID   = 67669
ELEMENT_SET_NO = 999
REV_AT_EPOCH   = 347
BSTAR          = .17037E-2
MEAN_MOTION_DOT = .262657E-2
MEAN_MOTION_DDOT = 0

CCSDS_OMM_VERS = 2.0
CREATION_DATE  = 
ORIGINATOR     = 

OBJECT_NAME    = STARLINK-36596
OBJECT_ID      = 2026-022Y
CENTER_NAME    = EARTH
REF_FRAME      = TEME
TIME_SYSTEM    = UTC
MEAN_ELEMENT_THEORY = SGP/SGP4

EPOCH          = 2026-02-24T10:05:49.505568
MEAN_MOTION    = 15.75233075
ECCENTRICITY   = .0000843
INCLINATION    = 97.2849
RA_OF_ASC_NODE = 88.7958
ARG_OF_PERICENTER = 134.5714
MEAN_ANOMALY   = 225.5620

EPHEMERIS_TYPE = 0
CLASSIFICATION_TYPE = U
NORAD_CAT_ID   = 67670
ELEMENT_SET_NO = 999
REV_AT_EPOCH   = 346
BSTAR          = .18431E-2
MEAN_MOTION_DOT = .284685E-2
MEAN_MOTION_DDOT = 0

CCSDS_OMM_VERS = 2.0
CREATION_DATE  = 
ORIGINATOR     = 

OBJECT_NAME    = STARLINK-36297
OBJECT_ID      = 2026-022Z
CENTER_NAME    = EARTH
REF_FRAME      = TEME
TIME_SYSTEM    = UTC
MEAN_ELEMENT_THEORY = SGP/SGP4

EPOCH          = 2026-02-24T10:02:46.486176
MEAN_MOTION    = 15.75234915
ECCENTRICITY   = .0000789
INCLINATION    = 97.2850
RA_OF_ASC_NODE = 88.7986
ARG_OF_PERICENTER = 127.6087
MEAN_ANOMALY   = 232.5250

EPHEMERIS_TYPE = 0
CLASSIFICATION_TYPE = U
NORAD_CAT_ID   = 67671
ELEMENT_SET_NO = 999
REV_AT_EPOCH   = 346
BSTAR          = .17741E-2
MEAN_MOTION_DOT = .273686E-2
MEAN_MOTION_DDOT = 0

