STARLINK-36673          
1 67660U 26022N   26055.05366022  .00253027  00000+0  16438-2 0  9991
2 67660  97.2838  88.3773 0001275 109.2300 250.9103 15.75242209  3404
STARLINK-36674          
1 67661U 26022P   26055.43341927  .00409153  00000+0  25986-2 0  9992
2 67661  97.2840  88.7795 0001818  28.1304 332.0059 15.75333002  3462
STARLINK-36700          
1 67662U 26022Q   26055.30424725  .00201901  00000+0  13198-2 0  9990
2 67662  97.2844  88.6488 0003204 347.3452  12.7732 15.75238800  3444
STARLINK-36675          
1 67663U 26022R   26055.49623472  .00210656  00000+0  13744-2 0  9995
2 67663  97.2840  88.8471 0001482 128.5196 231.6203 15.75261185  3475
STARLINK-36404          
1 67664U 26022S   26055.49305794  .00237307  00000+0  15452-2 0  9990
2 67664  97.2847  88.8505 0001532 135.7500 224.3887 15.75233459  3476
STARLINK-36399          
1 67665U 26022T   26055.49236170  .00221415  00000+0  14456-2 0  9998
2 67665  97.2849  88.8516 0002109  59.6495 300.4978 15.75213838  3475
STARLINK-36365          
1 67666U 26022U   26055.49094721  .00169789  00000+0  11149-2 0  9994
2 67666  97.2848  88.8532 0001328  78.5986 281.5429 15.75227442  3476
STARLINK-36622          
1 67667U 26022V   26055.48918152  .00178487  00000+0  11708-2 0  9993
2 67667  97.2849  88.8562 0001464  88.3134 271.8298 15.75227892  3471
STARLINK-36625          
1 67668U 26022W   26055.36071558  .00332113  00000+0  21303-2 0  9991
2 67668  97.2849  88.7245 0002259 121.8160 238.3326 15.75317341  3451
STARLINK-36639          
1 67669U 26022X   26055.48600402  .00262657  00000+0  17037-2 0  9995
2 67669  97.2848  88.8601 0001742 101.2460 258.9001 15.75251345  3470
STARLINK-36596          
1 67670U 26022Y   26055.42071187  .00284685  00000+0  18431-2 0  9997
2 67670  97.2849  88.7958 0000843 134.5714 225.5620 15.75233075  3465
STARLINK-36297          
1 67671U 26022Z   26055.41859359  .00273686  00000+0  17741-2 0  9994
2 67671  97.2850  88.7986 0000789 127.6087 232.5250 15.75234915  3465
